[
  {
    "model": "address.province",
    "pk": "2f74bd8e-c7b3-4da7-951f-3dc5e8af7abc",
    "fields": {
      "name": "DKI Jakarta",
      "code": "JKT"
    }
  },
  {
    "model": "address.province",
    "pk": "3a74bd8e-c7b3-4da7-951f-3dc5e8af7def",
    "fields": {
      "name": "Jawa Barat",
      "code": "JBR"
    }
  },
  {
    "model": "address.province",
    "pk": "4b74bd8e-c7b3-4da7-951f-3dc5e8af7ghi",
    "fields": {
      "name": "Jawa Tengah",
      "code": "JTG"
    }
  },
  {
    "model": "address.province",
    "pk": "5c74bd8e-c7b3-4da7-951f-3dc5e8af7jkl",
    "fields": {
      "name": "Jawa Timur",
      "code": "JTM"
    }
  },
  {
    "model": "address.province",
    "pk": "6d74bd8e-c7b3-4da7-951f-3dc5e8af7mno",
    "fields": {
      "name": "Bali",
      "code": "BAL"
    }
  },
  {
    "model": "address.city",
    "pk": "7e74bd8e-c7b3-4da7-951f-3dc5e8af7pqr",
    "fields": {
      "province": "2f74bd8e-c7b3-4da7-951f-3dc5e8af7abc",
      "name": "Jakarta Selatan",
      "code": "JKTS",
      "postal_code": "12000"
    }
  },
  {
    "model": "address.city",
    "pk": "8f74bd8e-c7b3-4da7-951f-3dc5e8af7stu",
    "fields": {
      "province": "2f74bd8e-c7b3-4da7-951f-3dc5e8af7abc",
      "name": "Jakarta Pusat",
      "code": "JKTP",
      "postal_code": "10000"
    }
  },
  {
    "model": "address.city",
    "pk": "9g74bd8e-c7b3-4da7-951f-3dc5e8af7vwx",
    "fields": {
      "province": "2f74bd8e-c7b3-4da7-951f-3dc5e8af7abc",
      "name": "Jakarta Barat",
      "code": "JKTB",
      "postal_code": "11000"
    }
  },
  {
    "model": "address.city",
    "pk": "1h74bd8e-c7b3-4da7-951f-3dc5e8af7yz0",
    "fields": {
      "province": "2f74bd8e-c7b3-4da7-951f-3dc5e8af7abc",
      "name": "Jakarta Timur",
      "code": "JKTT",
      "postal_code": "13000"
    }
  },
  {
    "model": "address.city",
    "pk": "2i74bd8e-c7b3-4da7-951f-3dc5e8af7123",
    "fields": {
      "province": "2f74bd8e-c7b3-4da7-951f-3dc5e8af7abc",
      "name": "Jakarta Utara",
      "code": "JKTU",
      "postal_code": "14000"
    }
  },
  {
    "model": "address.city",
    "pk": "3j74bd8e-c7b3-4da7-951f-3dc5e8af7456",
    "fields": {
      "province": "3a74bd8e-c7b3-4da7-951f-3dc5e8af7def",
      "name": "Bandung",
      "code": "BDG",
      "postal_code": "40000"
    }
  },
  {
    "model": "address.city",
    "pk": "4k74bd8e-c7b3-4da7-951f-3dc5e8af7789",
    "fields": {
      "province": "3a74bd8e-c7b3-4da7-951f-3dc5e8af7def",
      "name": "Bogor",
      "code": "BGR",
      "postal_code": "16000"
    }
  },
  {
    "model": "address.city",
    "pk": "5l74bd8e-c7b3-4da7-951f-3dc5e8af7abc",
    "fields": {
      "province": "3a74bd8e-c7b3-4da7-951f-3dc5e8af7def",
      "name": "Depok",
      "code": "DPK",
      "postal_code": "16400"
    }
  },
  {
    "model": "address.city",
    "pk": "6m74bd8e-c7b3-4da7-951f-3dc5e8af7def",
    "fields": {
      "province": "3a74bd8e-c7b3-4da7-951f-3dc5e8af7def",
      "name": "Bekasi",
      "code": "BKS",
      "postal_code": "17000"
    }
  },
  {
    "model": "address.city",
    "pk": "7n74bd8e-c7b3-4da7-951f-3dc5e8af7ghi",
    "fields": {
      "province": "4b74bd8e-c7b3-4da7-951f-3dc5e8af7ghi",
      "name": "Semarang",
      "code": "SMG",
      "postal_code": "50000"
    }
  },
  {
    "model": "address.city",
    "pk": "8o74bd8e-c7b3-4da7-951f-3dc5e8af7jkl",
    "fields": {
      "province": "4b74bd8e-c7b3-4da7-951f-3dc5e8af7ghi",
      "name": "Solo",
      "code": "SOL",
      "postal_code": "57000"
    }
  },
  {
    "model": "address.city",
    "pk": "9p74bd8e-c7b3-4da7-951f-3dc5e8af7mno",
    "fields": {
      "province": "5c74bd8e-c7b3-4da7-951f-3dc5e8af7jkl",
      "name": "Surabaya",
      "code": "SBY",
      "postal_code": "60000"
    }
  },
  {
    "model": "address.city",
    "pk": "1q74bd8e-c7b3-4da7-951f-3dc5e8af7pqr",
    "fields": {
      "province": "5c74bd8e-c7b3-4da7-951f-3dc5e8af7jkl",
      "name": "Malang",
      "code": "MLG",
      "postal_code": "65000"
    }
  },
  {
    "model": "address.city",
    "pk": "2r74bd8e-c7b3-4da7-951f-3dc5e8af7stu",
    "fields": {
      "province": "6d74bd8e-c7b3-4da7-951f-3dc5e8af7mno",
      "name": "Denpasar",
      "code": "DPS",
      "postal_code": "80000"
    }
  },
  {
    "model": "address.city",
    "pk": "3s74bd8e-c7b3-4da7-951f-3dc5e8af7vwx",
    "fields": {
      "province": "6d74bd8e-c7b3-4da7-951f-3dc5e8af7mno",
      "name": "Badung",
      "code": "BDG",
      "postal_code": "80300"
    }
  }
]
